[{"OBJECT_NAME":"STARLINK-2063","OBJECT_ID":"2021-041A","EPOCH":"2025-10-23T11:21:31.237344","MEAN_MOTION":15.06413015,"ECCENTRICITY":0.000145,"INCLINATION":53.0558,"RA_OF_ASC_NODE":27.6071,"ARG_OF_PERICENTER":95.8318,"MEAN_ANOMALY":264.2836,"EPHEMERIS_TYPE":0,"CLASSIFICATION_TYPE":"U","NORAD_CAT_ID":48553,"ELEMENT_SET_NO":999,"REV_AT_EPOCH":24452,"BSTAR":8.9155e-5,"MEAN_MOTION_DOT":1.047e-5,"MEAN_MOTION_DDOT":0},{"OBJECT_NAME":"STARLINK-2139","OBJECT_ID":"2021-041B","EPOCH":"2025-10-23T12:14:39.730848","MEAN_MOTION":15.06420718,"ECCENTRICITY":0.0001735,"INCLINATION":53.0575,"RA_OF_ASC_NODE":27.7471,"ARG_OF_PERICENTER":88.9991,"MEAN_ANOMALY":271.1197,"EPHEMERIS_TYPE":0,"CLASSIFICATION_TYPE":"U","NORAD_CAT_ID":48554,"ELEMENT_SET_NO":999,"REV_AT_EPOCH":24452,"BSTAR":0.00059405,"MEAN_MOTION_DOT":8.583e-5,"MEAN_MOTION_DDOT":0},{"OBJECT_NAME":"STARLINK-2145","OBJECT_ID":"2021-041C","EPOCH":"2025-10-23T12:13:16.176000","MEAN_MOTION":15.06398018,"ECCENTRICITY":0.0001562,"INCLINATION":53.0565,"RA_OF_ASC_NODE":37.4421,"ARG_OF_PERICENTER":112.4009,"MEAN_ANOMALY":247.7146,"EPHEMERIS_TYPE":0,"CLASSIFICATION_TYPE":"U","NORAD_CAT_ID":48555,"ELEMENT_SET_NO":999,"REV_AT_EPOCH":24438,"BSTAR":4.3134e-5,"MEAN_MOTION_DOT":3.61e-6,"MEAN_MOTION_DDOT":0},{"OBJECT_NAME":"STARLINK-2151","OBJECT_ID":"2021-041D","EPOCH":"2025-10-23T13:32:52.501056","MEAN_MOTION":15.06419656,"ECCENTRICITY":0.0001656,"INCLINATION":53.0549,"RA_OF_ASC_NODE":37.1947,"ARG_OF_PERICENTER":90.6997,"MEAN_ANOMALY":269.4181,"EPHEMERIS_TYPE":0,"CLASSIFICATION_TYPE":"U","NORAD_CAT_ID":48556,"ELEMENT_SET_NO":999,"REV_AT_EPOCH":24439,"BSTAR":0.00018652,"MEAN_MOTION_DOT":2.499e-5,"MEAN_MOTION_DDOT":0},{"OBJECT_NAME":"STARLINK-2155","OBJECT_ID":"2021-041E","EPOCH":"2025-10-23T15:15:03.089088","MEAN_MOTION":15.06422391,"ECCENTRICITY":0.0001583,"INCLINATION":53.0549,"RA_OF_ASC_NODE":26.8774,"ARG_OF_PERICENTER":106.4645,"MEAN_ANOMALY":253.6518,"EPHEMERIS_TYPE":0,"CLASSIFICATION_TYPE":"U","NORAD_CAT_ID":48557,"ELEMENT_SET_NO":999,"REV_AT_EPOCH":24454,"BSTAR":0.00017135,"MEAN_MOTION_DOT":2.273e-5,"MEAN_MOTION_DDOT":0},{"OBJECT_NAME":"STARLINK-2166","OBJECT_ID":"2021-041F","EPOCH":"2025-10-23T15:09:45.073152","MEAN_MOTION":15.06411961,"ECCENTRICITY":0.0001428,"INCLINATION":53.0578,"RA_OF_ASC_NODE":26.8952,"ARG_OF_PERICENTER":99.9993,"MEAN_ANOMALY":260.1157,"EPHEMERIS_TYPE":0,"CLASSIFICATION_TYPE":"U","NORAD_CAT_ID":48558,"ELEMENT_SET_NO":999,"REV_AT_EPOCH":24368,"BSTAR":-0.00013723,"MEAN_MOTION_DOT":-2.326e-5,"MEAN_MOTION_DDOT":0},{"OBJECT_NAME":"STARLINK-2187","OBJECT_ID":"2021-041K","EPOCH":"2025-10-23T14:37:55.716096","MEAN_MOTION":15.06377263,"ECCENTRICITY":0.0001437,"INCLINATION":53.0553,"RA_OF_ASC_NODE":26.9978,"ARG_OF_PERICENTER":93.2067,"MEAN_ANOMALY":266.9086,"EPHEMERIS_TYPE":0,"CLASSIFICATION_TYPE":"U","NORAD_CAT_ID":48562,"ELEMENT_SET_NO":999,"REV_AT_EPOCH":24454,"BSTAR":-0.00023318,"MEAN_MOTION_DOT":-3.751e-5,"MEAN_MOTION_DDOT":0},{"OBJECT_NAME":"STARLINK-2188","OBJECT_ID":"2021-041L","EPOCH":"2025-10-23T15:04:26.956992","MEAN_MOTION":15.06428208,"ECCENTRICITY":0.0001384,"INCLINATION":53.0559,"RA_OF_ASC_NODE":26.9114,"ARG_OF_PERICENTER":89.748,"MEAN_ANOMALY":270.3667,"EPHEMERIS_TYPE":0,"CLASSIFICATION_TYPE":"U","NORAD_CAT_ID":48563,"ELEMENT_SET_NO":999,"REV_AT_EPOCH":24454,"BSTAR":0.00089642,"MEAN_MOTION_DOT":0.00013106,"MEAN_MOTION_DDOT":0},{"OBJECT_NAME":"STARLINK-2190","OBJECT_ID":"2021-041M","EPOCH":"2025-10-23T13:18:18.374112","MEAN_MOTION":15.06419723,"ECCENTRICITY":0.0001435,"INCLINATION":53.0561,"RA_OF_ASC_NODE":27.2439,"ARG_OF_PERICENTER":94.8767,"MEAN_ANOMALY":265.2386,"EPHEMERIS_TYPE":0,"CLASSIFICATION_TYPE":"U","NORAD_CAT_ID":48564,"ELEMENT_SET_NO":999,"REV_AT_EPOCH":24453,"BSTAR":0.00095355,"MEAN_MOTION_DOT":0.00013958,"MEAN_MOTION_DDOT":0},{"OBJECT_NAME":"STARLINK-2214","OBJECT_ID":"2021-041P","EPOCH":"2025-10-23T13:43:30.948672","MEAN_MOTION":15.06395709,"ECCENTRICITY":0.0001509,"INCLINATION":53.0569,"RA_OF_ASC_NODE":37.1339,"ARG_OF_PERICENTER":98.5182,"MEAN_ANOMALY":261.5978,"EPHEMERIS_TYPE":0,"CLASSIFICATION_TYPE":"U","NORAD_CAT_ID":48566,"ELEMENT_SET_NO":999,"REV_AT_EPOCH":24439,"BSTAR":-0.00016801,"MEAN_MOTION_DOT":-2.783e-5,"MEAN_MOTION_DDOT":0},{"OBJECT_NAME":"STARLINK-2217","OBJECT_ID":"2021-041R","EPOCH":"2025-10-23T12:46:26.645376","MEAN_MOTION":15.06432958,"ECCENTRICITY":0.0001505,"INCLINATION":53.0548,"RA_OF_ASC_NODE":27.3419,"ARG_OF_PERICENTER":91.2235,"MEAN_ANOMALY":268.8926,"EPHEMERIS_TYPE":0,"CLASSIFICATION_TYPE":"U","NORAD_CAT_ID":48568,"ELEMENT_SET_NO":999,"REV_AT_EPOCH":24452,"BSTAR":0.0011019,"MEAN_MOTION_DOT":0.00016185,"MEAN_MOTION_DDOT":0},{"OBJECT_NAME":"STARLINK-2220","OBJECT_ID":"2021-041T","EPOCH":"2025-10-23T13:06:19.575360","MEAN_MOTION":15.06443308,"ECCENTRICITY":9.03e-5,"INCLINATION":53.0551,"RA_OF_ASC_NODE":37.2786,"ARG_OF_PERICENTER":108.86,"MEAN_ANOMALY":251.2487,"EPHEMERIS_TYPE":0,"CLASSIFICATION_TYPE":"U","NORAD_CAT_ID":48570,"ELEMENT_SET_NO":999,"REV_AT_EPOCH":24438,"BSTAR":0.00084497,"MEAN_MOTION_DOT":0.00012341,"MEAN_MOTION_DDOT":0}]
