STARLINK-2063           
1 48553U 21041A   25296.47327821  .00001047  00000+0  89155-4 0  9994
2 48553  53.0558  27.6071 0001450  95.8318 264.2836 15.06413015244524
STARLINK-2139           
1 48554U 21041B   25296.51018207  .00008583  00000+0  59405-3 0  9991
2 48554  53.0575  27.7471 0001735  88.9991 271.1197 15.06420718244520
STARLINK-2145           
1 48555U 21041C   25296.50921500  .00000361  00000+0  43134-4 0  9999
2 48555  53.0565  37.4421 0001562 112.4009 247.7146 15.06398018244388
STARLINK-2151           
1 48556U 21041D   25296.56449654  .00002499  00000+0  18652-3 0  9991
2 48556  53.0549  37.1947 0001656  90.6997 269.4181 15.06419656244391
STARLINK-2155           
1 48557U 21041E   25296.63545242  .00002273  00000+0  17135-3 0  9995
2 48557  53.0549  26.8774 0001583 106.4645 253.6518 15.06422391244546
STARLINK-2166           
1 48558U 21041F   25296.63177168 -.00002326  00000+0 -13723-3 0  9994
2 48558  53.0578  26.8952 0001428  99.9993 260.1157 15.06411961243684
STARLINK-2187           
1 48562U 21041K   25296.60967264 -.00003751  00000+0 -23318-3 0  9994
2 48562  53.0553  26.9978 0001437  93.2067 266.9086 15.06377263244547
STARLINK-2188           
1 48563U 21041L   25296.62808978  .00013106  00000+0  89642-3 0  9998
2 48563  53.0559  26.9114 0001384  89.7480 270.3667 15.06428208244546
STARLINK-2190           
1 48564U 21041M   25296.55437933  .00013958  00000+0  95355-3 0  9993
2 48564  53.0561  27.2439 0001435  94.8767 265.2386 15.06419723244538
STARLINK-2214           
1 48566U 21041P   25296.57188598 -.00002783  00000+0 -16801-3 0  9992
2 48566  53.0569  37.1339 0001509  98.5182 261.5978 15.06395709244398
STARLINK-2217           
1 48568U 21041R   25296.53225284  .00016185  00000+0  11019-2 0  9998
2 48568  53.0548  27.3419 0001505  91.2235 268.8926 15.06432958244528
STARLINK-2220           
1 48570U 21041T   25296.54605990  .00012341  00000+0  84497-3 0  9999
2 48570  53.0551  37.2786 0000903 108.8600 251.2487 15.06443308244387
